OBJECT_NAME,OBJECT_ID,EPOCH,MEAN_MOTION,ECCENTRICITY,INCLINATION,RA_OF_ASC_NODE,ARG_OF_PERICENTER,MEAN_ANOMALY,EPHEMERIS_TYPE,CLASSIFICATION_TYPE,NORAD_CAT_ID,ELEMENT_SET_NO,REV_AT_EPOCH,BSTAR,MEAN_MOTION_DOT,MEAN_MOTION_DDOT
LEMUR-2-ALISIA,2025-009DB,2026-06-08T17:53:35.449152,15.02652059,.0001017,97.6967,241.9731,190.3542,169.7662,0,U,62706,999,9889,.64134E-3,.8495E-4,0
LEMUR-2-ROUNDTRIPPER,2025-009DG,2026-06-08T18:37:14.259072,15.03652047,.0004446,97.7242,242.4675,158.6746,201.4665,0,U,62711,999,7636,.71826E-3,.978E-4,0
LEMUR-2-MYNAMEISJEFF,2025-009DH,2026-06-08T18:35:02.074848,15.03666575,.0002683,97.7292,242.8418,186.0931,174.0262,0,U,62712,999,7636,.68776E-3,.9364E-4,0
LEMUR-2-LEIA-PHILIP,2025-052AN,2026-06-08T04:21:26.790048,14.97291118,.0002054,97.6847,51.2835,249.4491,110.6511,0,U,63246,999,6732,.19544E-3,.2208E-4,0
LEMUR-2-LIA-MARTIN,2025-052AQ,2026-06-08T12:33:45.213408,14.97733641,.0002347,97.6909,52.0814,171.3588,188.7675,0,U,63248,999,6738,.4838E-3,.5617E-4,0
LEMUR-2-DELOITTE-1,2025-052BB,2026-06-08T11:58:04.459872,14.97537849,.0002479,97.6920,52.3863,114.7528,245.3952,0,U,63259,999,6739,.35254E-3,.4056E-4,0
LEMUR-2-EMERSONROSE,2025-052BD,2026-06-08T05:10:11.157024,14.99020138,.0002472,97.6905,52.6491,71.0664,289.0826,0,U,63261,999,6739,.26647E-3,.3172E-4,0
LEMUR-2-MARACHE-FRAN,2025-052BE,2026-06-08T12:43:37.350624,15.00011735,.0006165,97.6948,53.2569,51.1759,309.0014,0,U,63262,999,6746,.51222E-3,.6317E-4,0
LEMUR-2-THEFALCONER,2025-052BG,2026-06-08T12:34:20.441280,14.97334167,.0003565,97.6878,52.0404,59.1931,300.9641,0,U,63264,999,6739,.40269E-3,.4617E-4,0
LEMUR-2-UNTITLED-SC,2025-061A,2026-06-08T10:15:33.236064,15.13411015,.0017139,97.5631,134.8535,298.0705,61.8793,0,U,63351,999,6626,.19918E-3,.3501E-4,0
LEMUR-2-ESPERANZA,2025-061B,2026-06-08T19:14:37.709376,15.13509843,.0016709,97.5639,135.3168,296.0887,63.8624,0,U,63352,999,6632,.23236E-3,.4107E-4,0
LEMUR-2-KREMPEL-BRO2,2025-061C,2026-06-08T10:25:53.279616,15.13939313,.0017536,97.5685,135.4743,288.9993,70.9338,0,U,63353,999,6628,.19509E-3,.348E-4,0
LEMUR-2-THERMORAPTOR,2025-061D,2026-06-08T11:35:53.651040,15.14018473,.0017262,97.5690,135.5966,287.6914,72.2433,0,U,63354,999,6629,.23531E-3,.4221E-4,0
LEMUR-2-NEUROSPICY,2025-061E,2026-06-08T15:41:32.632224,15.14135951,.0015047,97.5616,135.3992,291.4446,68.5180,0,U,63355,999,6632,.22174E-3,.3984E-4,0
LEMUR-2-TILLINFINITY,2025-061F,2026-06-07T21:35:32.382240,15.14716168,.00162393,97.5604,134.9339,280.9054,79.0350,0,U,63356,999,6623,.23430333E-3,.4285E-4,0
LEMUR-2-LANGER2SPACE,2025-061H,2026-06-08T19:43:19.945632,15.14224528,.0014987,97.5608,135.5862,288.8533,71.1073,0,U,63358,999,6635,.22397E-3,.4035E-4,0
LEMUR-2-BALTO,2025-052BH,2026-06-08T12:21:24.826752,14.99993155,.0006663,97.6881,53.2264,79.6341,280.5634,0,U,63395,999,6746,.48285E-3,.5948E-4,0
LEMUR-2-KRISH,2025-135AK,2026-06-08T18:45:10.227168,14.96127898,.0001239,97.7723,274.7173,107.6430,252.4927,0,U,64561,999,5266,.48066E-3,.5352E-4,0
LEMUR-2-HUBBLE-4,2025-135AP,2026-06-08T13:24:40.212000,14.93174103,.0001601,97.7690,273.5702,356.0807,4.0400,0,U,64565,999,5258,.14163E-3,.1422E-4,0
LEMUR-2-SEJONG-2,2025-135BL,2026-06-08T19:32:22.579008,14.96637243,.0004512,97.7685,274.8937,16.9319,343.2052,0,U,64586,999,5269,.44648E-3,.5034E-4,0
LEMUR-2-HUBBLE-5,2025-135BT,2026-06-08T18:52:05.062080,14.94110443,.0005744,97.7710,274.4148,21.7594,338.3869,0,U,64840,999,5265,.1825E-3,.1894E-4,0
LEMUR-2-KARENDARRELL,2025-135BU,2026-06-08T07:30:40.836960,14.99981807,.0009124,97.7668,275.5377,236.7119,123.3231,0,U,64841,999,5268,.53582E-3,.6608E-4,0
LEMUR-2-LUCILLE-ROSE,2025-135BV,2026-06-08T13:17:30.905952,15.00045641,.0010636,97.7768,275.7868,316.5953,43.4432,0,U,65403,999,4734,.59074E-3,.7306E-4,0
LEMUR-2-AFFIE-WAUWIE,2025-248C,2026-06-07T07:23:30.971040,15.26866519,.0008835,45.3866,168.5000,20.2835,339.8404,0,U,66295,999,3308,.52119E-3,.13749E-3,0
LEMUR-2-DEANANDMAEVE,2025-276N,2026-06-08T18:06:55.222848,15.19629534,.0006469,97.4209,233.3710,41.6458,318.5268,0,U,66678,999,2913,.3524E-3,.7447E-4,0
LEMUR-2-STAS-GORBUK,2025-276W,2026-06-08T18:25:03.086976,15.19292385,.0005946,97.4245,233.4390,41.9173,318.2516,0,U,66686,999,2913,.29212E-3,.61E-4,0
LEMUR-2-TEODOR,2025-276DG,2026-06-08T18:14:58.392384,15.20959604,.0001845,97.4147,233.6579,123.1960,236.9453,0,U,66768,999,2916,.28971E-3,.6349E-4,0
LEMUR-2-LAILA,2025-276DQ,2026-06-08T17:39:10.224000,15.21180565,.000165,97.4173,233.7488,146.6176,213.5164,0,U,66776,999,2916,.28626E-3,.6313E-4,0
LEMUR-2-CELIJO-SB-PK,2025-276DW,2026-06-08T18:20:36.773664,14.99873419,.0008845,97.5277,230.8175,152.7094,207.4596,0,U,66781,999,2136,.52617E-3,.6472E-4,0
